[{"OBJECT_NAME":"STARLINK-3526","OBJECT_ID":"2022-016G","EPOCH":"2026-03-09T23:36:02.922624","MEAN_MOTION":15.08834081,"ECCENTRICITY":0.00011494,"INCLINATION":53.2176,"RA_OF_ASC_NODE":327.7746,"ARG_OF_PERICENTER":88.8822,"MEAN_ANOMALY":271.2302,"EPHEMERIS_TYPE":0,"CLASSIFICATION_TYPE":"U","NORAD_CAT_ID":51720,"ELEMENT_SET_NO":999,"REV_AT_EPOCH":22346,"BSTAR":0.00013886738,"MEAN_MOTION_DOT":1.923e-5,"MEAN_MOTION_DDOT":0},{"OBJECT_NAME":"ELECTRON KICK STAGE R\/B","OBJECT_ID":"2023-196B","EPOCH":"2026-03-09T10:54:03.246336","MEAN_MOTION":15.12760744,"ECCENTRICITY":0.00189263,"INCLINATION":42.0179,"RA_OF_ASC_NODE":242.1679,"ARG_OF_PERICENTER":295.0915,"MEAN_ANOMALY":64.7951,"EPHEMERIS_TYPE":0,"CLASSIFICATION_TYPE":"U","NORAD_CAT_ID":58579,"ELEMENT_SET_NO":999,"REV_AT_EPOCH":12282,"BSTAR":0.00048326039,"MEAN_MOTION_DOT":8.466e-5,"MEAN_MOTION_DDOT":0}]
